[{"OBJECT_NAME":"STARLINK-33938","OBJECT_ID":"2025-091D","EPOCH":"2026-03-09T23:10:52.836384","MEAN_MOTION":15.27583945,"ECCENTRICITY":0.00010059,"INCLINATION":43.001,"RA_OF_ASC_NODE":51.0386,"ARG_OF_PERICENTER":176.9868,"MEAN_ANOMALY":183.099,"EPHEMERIS_TYPE":0,"CLASSIFICATION_TYPE":"U","NORAD_CAT_ID":63778,"ELEMENT_SET_NO":999,"REV_AT_EPOCH":4903,"BSTAR":0.00082682102,"MEAN_MOTION_DOT":0.00022562,"MEAN_MOTION_DDOT":0},{"OBJECT_NAME":"OBJECT BC","OBJECT_ID":"2025-313BC","EPOCH":"2026-03-09T04:33:08.504064","MEAN_MOTION":15.29126358,"ECCENTRICITY":0.00084789,"INCLINATION":97.3985,"RA_OF_ASC_NODE":144.811,"ARG_OF_PERICENTER":328.9209,"MEAN_ANOMALY":31.1528,"EPHEMERIS_TYPE":0,"CLASSIFICATION_TYPE":"U","NORAD_CAT_ID":67298,"ELEMENT_SET_NO":999,"REV_AT_EPOCH":789,"BSTAR":0.0026410397,"MEAN_MOTION_DOT":0.00075331,"MEAN_MOTION_DDOT":0}]
